{
    "links": {
        "self": "http://www.neowsapp.com/rest/v1/neo/3748520?api_key=iIulBulltgU6a56xZRHN4H3l9WmuAYTsLGpBGhQ2"
    },
    "id": "3748520",
    "neo_reference_id": "3748520",
    "name": "(2016 GD)",
    "designation": "2016 GD",
    "nasa_jpl_url": "http://ssd.jpl.nasa.gov/sbdb.cgi?sstr=3748520",
    "absolute_magnitude_h": 26.4,
    "estimated_diameter": {
        "kilometers": {
            "estimated_diameter_min": 0.0139493823,
            "estimated_diameter_max": 0.0311917671
        },
        "meters": {
            "estimated_diameter_min": 13.9493822934,
            "estimated_diameter_max": 31.1917670523
        },
        "miles": {
            "estimated_diameter_min": 0.0086677416,
            "estimated_diameter_max": 0.0193816595
        },
        "feet": {
            "estimated_diameter_min": 45.7656914036,
            "estimated_diameter_max": 102.3351970157
        }
    },
    "is_potentially_hazardous_asteroid": false,
    "close_approach_data": [
        {
            "close_approach_date": "2016-03-16",
            "close_approach_date_full": "2016-Mar-16 07:04",
            "epoch_date_close_approach": 1458111840000,
            "relative_velocity": {
                "kilometers_per_second": "3.9080277549",
                "kilometers_per_hour": "14068.899917802",
                "miles_per_hour": "8741.8672850365"
            },
            "miss_distance": {
                "astronomical": "0.0396502309",
                "lunar": "15.4239398201",
                "kilometers": "5931590.087648183",
                "miles": "3685719.1713956054"
            },
            "orbiting_body": "Earth"
        },
        {
            "close_approach_date": "2016-07-09",
            "close_approach_date_full": "2016-Jul-09 22:48",
            "epoch_date_close_approach": 1468104480000,
            "relative_velocity": {
                "kilometers_per_second": "9.5897553566",
                "kilometers_per_hour": "34523.1192836748",
                "miles_per_hour": "21451.3237571256"
            },
            "miss_distance": {
                "astronomical": "0.0526083786",
                "lunar": "20.4646592754",
                "kilometers": "7870101.382713582",
                "miles": "4890254.2351161516"
            },
            "orbiting_body": "Mars"
        },
        {
            "close_approach_date": "2058-04-30",
            "close_approach_date_full": "2058-Apr-30 01:09",
            "epoch_date_close_approach": 2787354540000,
            "relative_velocity": {
                "kilometers_per_second": "14.9226010744",
                "kilometers_per_hour": "53721.3638680135",
                "miles_per_hour": "33380.3663434332"
            },
            "miss_distance": {
                "astronomical": "0.3737168827",
                "lunar": "145.3758673703",
                "kilometers": "55907249.634959849",
                "miles": "34739154.0471859562"
            },
            "orbiting_body": "Earth"
        }
    ],
    "orbital_data": {
        "orbit_id": "11",
        "orbit_determination_date": "2017-04-06 08:26:57",
        "first_observation_date": "2016-04-01",
        "last_observation_date": "2016-04-30",
        "data_arc_in_days": 29,
        "observations_used": 37,
        "orbit_uncertainty": "7",
        "minimum_orbit_intersection": ".039233",
        "jupiter_tisserand_invariant": "4.406",
        "epoch_osculation": "2459000.5",
        "eccentricity": ".3297677986754124",
        "semi_major_axis": "1.540088777129883",
        "inclination": ".625548471004665",
        "ascending_node_longitude": "32.85035317069395",
        "orbital_period": "698.0990725333371",
        "perihelion_distance": "1.032217091331054",
        "perihelion_argument": "136.0893587120045",
        "aphelion_distance": "2.047960462928712",
        "perihelion_time": "2458853.694469836739",
        "mean_anomaly": "75.7055738048557",
        "mean_motion": ".5156861170057041",
        "equinox": "J2000",
        "orbit_class": {
            "orbit_class_type": "AMO",
            "orbit_class_description": "Near-Earth asteroid orbits similar to that of 1221 Amor",
            "orbit_class_range": "1.017 AU < q (perihelion) < 1.3 AU"
        }
    },
    "is_sentry_object": false
}